GPS BIIR-5  (PRN 22)    
1 26407U 00040A   26131.47043068  .00000008  00000+0  00000+0 0  9994
2 26407  54.8578 216.6207 0121434 302.3490 110.8055  2.00557385189214
GPS BIIR-8  (PRN 16)    
1 27663U 03005A   26131.21267405  .00000007  00000+0  00000+0 0  9997
2 27663  54.8889 216.4379 0148046  53.0030 309.5006  2.00562542170573
GPS BIIR-11 (PRN 19)    
1 28190U 04009A   26130.98517067 -.00000028  00000+0  00000+0 0  9997
2 28190  54.8619 277.1896 0114396 171.4377 180.8159  2.00555923162191
GPS BIIR-13 (PRN 02)    
1 28474U 04045A   26131.15525008 -.00000047  00000+0  00000+0 0  9997
2 28474  55.1577 326.3876 0169917 315.4238 224.7260  2.00554230157682
GPS BIIRM-1 (PRN 17)    
1 28874U 05038A   26131.48971132 -.00000029  00000+0  00000+0 0  9993
2 28874  54.9094 274.6578 0127719 295.9348  87.7237  2.00568209151102
GPS BIIRM-2 (PRN 31)    
1 29486U 06042A   26131.11793913  .00000102  00000+0  00000+0 0  9999
2 29486  54.7051 152.8106 0106142  53.6775 319.4217  2.00571966143655
GPS BIIRM-3 (PRN 12)    
1 29601U 06052A   26129.52802080  .00000001  00000+0  00000+0 0  9995
2 29601  54.9405 215.5387 0086019  90.4547 270.5791  2.00556031142630
GPS BIIRM-4 (PRN 15)    
1 32260U 07047A   26131.32865397  .00000016  00000+0  00000+0 0  9992
2 32260  54.0690  81.5843 0165217  86.7128 275.1563  2.00557116136075
GPS BIIRM-5 (PRN 29)    
1 32384U 07062A   26130.07820391 -.00000024  00000+0  00000+0 0  9992
2 32384  55.0635 275.6840 0034928 163.1689 140.9905  2.00557766134743
GPS BIIRM-6 (PRN 07)    
1 32711U 08012A   26131.24306918  .00000104  00000+0  00000+0 0  9994
2 32711  54.4911 151.4008 0210278 247.3353 110.4826  2.00571452133012
GPS BIIRM-8 (PRN 05)    
1 35752U 09043A   26131.49136524 -.00000073  00000+0  00000+0 0  9994
2 35752  56.1882  28.8933 0053284  81.7986 109.8702  2.00556254122627
GPS BIIF-1  (PRN 25)    
1 36585U 10022A   26131.56669771  .00000019  00000+0  00000+0 0  9990
2 36585  54.2743 210.0374 0126478  66.1083 297.4696  2.00560608116865
GPS BIIF-3  (PRN 24)    
1 38833U 12053A   26131.42233823  .00000106  00000+0  00000+0 0  9991
2 38833  53.5784 145.1054 0178514  65.3181 296.5807  2.00566906 98704
GPS BIIF-4  (PRN 27)    
1 39166U 13023A   26129.29399612 -.00000022  00000+0  00000+0 0  9998
2 39166  54.5360 270.5574 0141860  50.7897 310.4448  2.00563750 95103
GPS BIIF-5  (PRN 30)    
1 39533U 14008A   26131.28940414  .00000103  00000+0  00000+0 0  9993
2 39533  53.6477 150.8247 0084039 230.5288 128.7802  2.00557452 88943
GPS BIIF-6  (PRN 06)    
1 39741U 14026A   26129.07202593 -.00000056  00000+0  00000+0 0  9995
2 39741  56.5164 333.0405 0038702 326.8434  32.9447  2.00563972 87751
GPS BIIF-7  (PRN 09)    
1 40105U 14045A   26131.15738155  .00000039  00000+0  00000+0 0  9992
2 40105  55.3298  89.9395 0032007 118.8352 241.4695  2.00555966 85335
GPS BIIF-8  (PRN 03)    
1 40294U 14068A   26131.03024580 -.00000070  00000+0  00000+0 0  9999
2 40294  56.9632  32.3866 0065909  69.3046 291.4283  2.00573942 84460
GPS BIIF-9  (PRN 26)    
1 40534U 15013A   26131.16585397  .00000021  00000+0  00000+0 0  9994
2 40534  53.1716 205.7089 0108950  40.0129 320.8457  2.00553594 81080
GPS BIIF-10 (PRN 08)    
1 40730U 15033A   26129.82930871 -.00000025  00000+0  00000+0 0  9990
2 40730  54.0138 268.6674 0115016  30.0157 330.6220  2.00558236 79223
GPS BIIF-11 (PRN 10)    
1 41019U 15062A   26131.38250225 -.00000070  00000+0  00000+0 0  9995
2 41019  56.9358  32.2294 0111324 231.4035 127.6237  2.00567010 77097
GPS BIIF-12 (PRN 32)    
1 41328U 16007A   26130.97252754  .00000042  00000+0  00000+0 0  9999
2 41328  55.5019  90.9342 0096128 247.2269 111.7395  2.00553487 75092
GPS BIII-1  (PRN 04)    
1 43873U 18109A   26131.37380661  .00000047  00000+0  00000+0 0  9990
2 43873  55.6601  93.6388 0038065 198.7607 344.2455  2.00560025 54339
GPS BIII-2  (PRN 18)    
1 44506U 19056A   26130.25825404 -.00000053  00000+0  00000+0 0  9999
2 44506  55.6545 332.6508 0060147 197.3681 162.7587  2.00569435 49318
GPS BIII-3  (PRN 23)    
1 45854U 20041A   26131.60465042 -.00000072  00000+0  00000+0 0  9991
2 45854  56.6469  30.3638 0062614 204.8525 347.3313  2.00559506 43308
GPS BIII-4  (PRN 14)    
1 46826U 20078A   26129.38239204  .00000003  00000+0  00000+0 0  9995
2 46826  53.9858 212.3527 0071729 206.0993 156.6530  2.00564990 40738
GPS BIII-5  (PRN 11)    
1 48859U 21054A   26129.62249819 -.00000058  00000+0  00000+0 0  9999
2 48859  55.1919 334.0107 0024328 229.2058 132.7073  2.00571667 35983
GPS BIII-6  (PRN 28)    
1 55268U 23009A   26126.56820279  .00000055  00000+0  00000+0 0  9994
2 55268  55.1158 150.1548 0005801 314.7345  39.4736  2.00574558 24406
GPS BIII-7  (PRN 01)    
1 62339U 24242A   26131.19106406 -.00000056  00000+0  00000+0 0  9997
2 62339  54.8655 335.6820 0017049   3.2250 171.7547  2.00570943 10517
GPS BIII-8  (PRN 21)    
1 64202U 25116A   26120.52613794 -.00000106  00000+0  00000+0 0  9993
2 64202  55.2044  33.0485 0009186 336.4638 239.4024  2.00549603  6915
GPS BIII-9  (PRN 20)    
1 67588U 26017A   26131.30387553  .00000038  00000+0  00000+0 0  9996
2 67588  55.0654  90.2350 0023085 255.2038 104.5234  2.00571918430877
GPS BIII-10 (PRN 13)    
1 68791U 26087A   26131.62585228  .00000021  00000+0  00000+0 0  9996
2 68791  54.9867 209.2339 0004342 263.1461 174.6098  2.00585439   108
